APRIZESAT 2             
1 28366U 04025A   26156.45611716  .00000155  00000+0  61640-4 0  9998
2 28366  98.1006 323.1013 0104312 285.6907  73.2793 14.38031312149957
SAUDICOMSAT 1           
1 28369U 04025D   26156.81058918  .00000479  00000+0  12058-3 0  9997
2 28369  98.5772 166.6351 0033222  59.6174 300.8299 14.55464627162475
SAUDICOMSAT 2           
1 28370U 04025E   26156.80803938  .00000323  00000+0  94771-4 0  9999
2 28370  98.6642 168.7319 0054203 294.6835  64.8720 14.49974627158456
APRIZESAT 1             
1 28372U 04025G   26156.50909579  .00000225  00000+0  67517-4 0  9995
2 28372  98.6304 166.9166 0044403 189.1320 170.9071 14.51771210160212
SAUDICOMSAT 7           
1 31119U 07012C   26156.85171604  .00000592  00000+0  11510-3 0  9993
2 31119  98.3772 130.7517 0054624 231.2014 128.4303 14.66099308 20774
SAUDICOMSAT 3           
1 31125U 07012J   26156.41299627  .00000963  00000+0  16492-3 0  9994
2 31125  98.3138 131.6035 0040506  89.2367 271.3479 14.70685866 23093
APRIZESAT 4             
1 35684U 09041D   26156.45646631  .00000803  00000+0  10227-3 0  9990
2 35684  98.1412 231.5431 0043259   1.5163 358.6174 14.83863132909620
APRIZESAT 3             
1 35686U 09041F   26156.86383156  .00001545  00000+0  13750-3 0  9995
2 35686  98.2058 309.5466 0062903 104.1363 256.6857 14.96210103914687
S-NET B                 
1 43187U 18014H   26156.99297065  .00006398  00000+0  33110-3 0  9990
2 43187  97.5375  61.8400 0010380  59.3928 300.8327 15.16535848457069
S-NET A                 
1 43188U 18014J   26156.98067252  .00006221  00000+0  32170-3 0  9993
2 43188  97.5382  62.0347 0010315  59.8453 300.3801 15.16572763457066
S-NET C                 
1 43189U 18014K   26156.99678978  .00006551  00000+0  33891-3 0  9995
2 43189  97.5399  62.1237 0011496  53.0599 307.1685 15.16527728455617
SALSAT                  
1 46495U 20068K   26156.50196863  .00008465  00000+0  29742-3 0  9991
2 46495  97.8853 158.8572 0009210 354.5258   5.5879 15.29623212313576
OOV-CUBE (TUBSAT-30)    
1 60240U 24128F   26156.87674825  .00003150  00000+0  24502-3 0  9990
2 60240  61.9953 265.0104 0046034 131.2422 229.2650 15.02723262104413
LPNTSAT-001 (IOD-1)     
1 68408U 26065A   26156.41316029  .00003221  00000+0  15898-3 0  9992
2 68408  97.4029  37.1716 0017799  49.7573 310.5214 15.18472166 10471
